{
  "type": "FeatureCollection",
  "features": [
    {
      "type": "Feature",
      "properties": {
        "name": "Северна индустриална зона"
      },
      "geometry": {
        "type": "Polygon",
        "coordinates": [
          [
            [
              24.7088,
              42.1733
            ],
            [
              24.7495,
              42.175
            ],
            [
              24.7572,
              42.1665
            ],
            [
              24.7418,
              42.1597
            ],
            [
              24.722,
              42.16225
            ],
            [
              24.7088,
              42.1665
            ],
            [
              24.7088,
              42.1733
            ]
          ]
        ]
      }
    },
    {
      "type": "Feature",
      "properties": {
        "name": "Кършияка"
      },
      "geometry": {
        "type": "Polygon",
        "coordinates": [
          [
            [
              24.7165,
              42.16225
            ],
            [
              24.7495,
              42.1648
            ],
            [
              24.7528,
              42.1495
            ],
            [
              24.7352,
              42.1444
            ],
            [
              24.7165,
              42.1495
            ],
            [
              24.711,
              42.1563
            ],
            [
              24.7165,
              42.16225
            ]
          ]
        ]
      }
    },
    {
      "type": "Feature",
      "properties": {
        "name": "Изгрев"
      },
      "geometry": {
        "type": "Polygon",
        "coordinates": [
          [
            [
              24.7682,
              42.16225
            ],
            [
              24.7858,
              42.1648
            ],
            [
              24.7902,
              42.1529
            ],
            [
              24.7748,
              42.1478
            ],
            [
              24.7638,
              42.1546
            ],
            [
              24.7682,
              42.16225
            ]
          ]
        ]
      }
    },
    {
      "type": "Feature",
      "properties": {
        "name": "Източна индустриална зона"
      },
      "geometry": {
        "type": "Polygon",
        "coordinates": [
          [
            [
              24.7748,
              42.1512
            ],
            [
              24.8012,
              42.1546
            ],
            [
              24.8056,
              42.1393
            ],
            [
              24.7902,
              42.1308
            ],
            [
              24.7748,
              42.1393
            ],
            [
              24.7748,
              42.1512
            ]
          ]
        ]
      }
    },
    {
      "type": "Feature",
      "properties": {
        "name": "Център"
      },
      "geometry": {
        "type": "Polygon",
        "coordinates": [
          [
            [
              24.7308,
              42.1478
            ],
            [
              24.7528,
              42.1512
            ],
            [
              24.7638,
              42.1427
            ],
            [
              24.766,
              42.1308
            ],
            [
              24.7528,
              42.124
            ],
            [
              24.7363,
              42.1257
            ],
            [
              24.7264,
              42.1359
            ],
            [
              24.7308,
              42.1478
            ]
          ]
        ]
      }
    },
    {
      "type": "Feature",
      "properties": {
        "name": "Широк център"
      },
      "geometry": {
        "type": "Polygon",
        "coordinates": [
          [
            [
              24.7363,
              42.1257
            ],
            [
              24.7528,
              42.124
            ],
            [
              24.766,
              42.1308
            ],
            [
              24.7693,
              42.1206
            ],
            [
              24.7572,
              42.1138
            ],
            [
              24.7418,
              42.1155
            ],
            [
              24.733,
              42.1206
            ],
            [
              24.7363,
              42.1257
            ]
          ]
        ]
      }
    },
    {
      "type": "Feature",
      "properties": {
        "name": "Тракия"
      },
      "geometry": {
        "type": "Polygon",
        "coordinates": [
          [
            [
              24.766,
              42.1427
            ],
            [
              24.7858,
              42.1461
            ],
            [
              24.7935,
              42.1342
            ],
            [
              24.788,
              42.124
            ],
            [
              24.7693,
              42.1206
            ],
            [
              24.7638,
              42.1325
            ],
            [
              24.766,
              42.1427
            ]
          ]
        ]
      }
    },
    {
      "type": "Feature",
      "properties": {
        "name": "Прослав"
      },
      "geometry": {
        "type": "Polygon",
        "coordinates": [
          [
            [
              24.7,
              42.1393
            ],
            [
              24.7099,
              42.1427
            ],
            [
              24.7143,
              42.1342
            ],
            [
              24.7088,
              42.1274
            ],
            [
              24.7,
              42.1308
            ],
            [
              24.7,
              42.1393
            ]
          ]
        ]
      }
    },
    {
      "type": "Feature",
      "properties": {
        "name": "Смирненски"
      },
      "geometry": {
        "type": "Polygon",
        "coordinates": [
          [
            [
              24.7099,
              42.1393
            ],
            [
              24.7308,
              42.1376
            ],
            [
              24.733,
              42.124
            ],
            [
              24.7198,
              42.1172
            ],
            [
              24.7066,
              42.1223
            ],
            [
              24.7033,
              42.1325
            ],
            [
              24.7099,
              42.1393
            ]
          ]
        ]
      }
    },
    {
      "type": "Feature",
      "properties": {
        "name": "Въстанически"
      },
      "geometry": {
        "type": "Polygon",
        "coordinates": [
          [
            [
              24.733,
              42.1206
            ],
            [
              24.7418,
              42.1155
            ],
            [
              24.7572,
              42.1138
            ],
            [
              24.755,
              42.1036
            ],
            [
              24.7396,
              42.1019
            ],
            [
              24.7286,
              42.1104
            ],
            [
              24.733,
              42.1206
            ]
          ]
        ]
      }
    },
    {
      "type": "Feature",
      "properties": {
        "name": "Индустриална зона Юг"
      },
      "geometry": {
        "type": "Polygon",
        "coordinates": [
          [
            [
              24.7693,
              42.1206
            ],
            [
              24.788,
              42.124
            ],
            [
              24.7968,
              42.1138
            ],
            [
              24.7902,
              42.1002
            ],
            [
              24.7682,
              42.0985
            ],
            [
              24.7594,
              42.1087
            ],
            [
              24.7693,
              42.1206
            ]
          ]
        ]
      }
    },
    {
      "type": "Feature",
      "properties": {
        "name": "Коматево"
      },
      "geometry": {
        "type": "Polygon",
        "coordinates": [
          [
            [
              24.7044,
              42.1087
            ],
            [
              24.7154,
              42.1104
            ],
            [
              24.7187,
              42.1019
            ],
            [
              24.711,
              42.0951
            ],
            [
              24.7022,
              42.0985
            ],
            [
              24.7044,
              42.1087
            ]
          ]
        ]
      }
    },
    {
      "type": "Feature",
      "properties": {
        "name": "Гагарин"
      },
      "geometry": {
        "type": "Polygon",
        "coordinates": [
          [
            [
              24.7572,
              42.1138
            ],
            [
              24.766,
              42.1138
            ],
            [
              24.7682,
              42.107
            ],
            [
              24.7572,
              42.1036
            ],
            [
              24.7506,
              42.1087
            ],
            [
              24.7572,
              42.1138
            ]
          ]
        ]
      }
    }
  ]
}